$$SOE
2460721.500000000, A.D. 2025-Feb-15 00:00:00.0000, -3.873379270617838E+08, -2.746839638412151E+08, -7.230108790928587E+07,
2460728.500000000, A.D. 2025-Feb-22 00:00:00.0000, -3.810470112165946E+08, -2.820526243611313E+08, -7.183378593555708E+07,
2460735.500000000, A.D. 2025-Mar-01 00:00:00.0000, -3.745882951302775E+08, -2.892971397777033E+08, -7.133485023633969E+07,
2460742.500000000, A.D. 2025-Mar-08 00:00:00.0000, -3.679637415852575E+08, -2.964136410870263E+08, -7.080433355779527E+07,
2460749.500000000, A.D. 2025-Mar-15 00:00:00.0000, -3.611753941152421E+08, -3.033982626166687E+08, -7.024230074768655E+07,
2460756.500000000, A.D. 2025-Mar-22 00:00:00.0000, -3.542253806239695E+08, -3.102471428874142E+08, -6.964882878864244E+07,
2460763.500000000, A.D. 2025-Mar-29 00:00:00.0000, -3.471159156494766E+08, -3.169564278120672E+08, -6.902400714781840E+07,
2460770.500000000, A.D. 2025-Apr-05 00:00:00.0000, -3.398493009479360E+08, -3.235222730961450E+08, -6.836793821674606E+07,
2460777.500000000, A.D. 2025-Apr-12 00:00:00.0000, -3.324279263211385E+08, -3.299408457380665E+08, -6.768073765607470E+07,
2460784.500000000, A.D. 2025-Apr-19 00:00:00.0000, -3.248542708715897E+08, -3.362083255112634E+08, -6.696253469954817E+07,
2460791.500000000, A.D. 2025-Apr-26 00:00:00.0000, -3.171309044093412E+08, -3.423209066325653E+08, -6.621347245810461E+07,
2460798.500000000, A.D. 2025-May-03 00:00:00.0000, -3.092604888921024E+08, -3.482747995996922E+08, -6.543370823240866E+07,
2460805.500000000, A.D. 2025-May-10 00:00:00.0000, -3.012457798651635E+08, -3.540662331920939E+08, -6.462341383538382E+07,
2460812.500000000, A.D. 2025-May-17 00:00:00.0000, -2.930896278598694E+08, -3.596914566798617E+08, -6.378277593137932E+07,
2460819.500000000, A.D. 2025-May-24 00:00:00.0000, -2.847949795727726E+08, -3.651467422992228E+08, -6.291199641244777E+07,
2460826.500000000, A.D. 2025-May-31 00:00:00.0000, -2.763648784041167E+08, -3.704283876874455E+08, -6.201129282465070E+07,
2460833.500000000, A.D. 2025-Jun-07 00:00:00.0000, -2.678024647527780E+08, -3.755327170754043E+08, -6.108089870888948E+07,
2460840.500000000, A.D. 2025-Jun-14 00:00:00.0000, -2.591109784273967E+08, -3.804560819070393E+08, -6.012106369333328E+07,
2460847.500000000, A.D. 2025-Jun-21 00:00:00.0000, -2.502937619515131E+08, -3.851948641600817E+08, -5.913205371593855E+07,
2460854.500000000, A.D. 2025-Jun-28 00:00:00.0000, -2.413542616297709E+08, -3.897454806070832E+08, -5.811415151946363E+07,
2460861.500000000, A.D. 2025-Jul-05 00:00:00.0000, -2.322960278871826E+08, -3.941043858629768E+08, -5.706765710299531E+07,
2460868.500000000, A.D. 2025-Jul-12 00:00:00.0000, -2.231227160667199E+08, -3.982680750260308E+08, -5.599288808556378E+07,
2460875.500000000, A.D. 2025-Jul-19 00:00:00.0000, -2.138380874889498E+08, -4.022330864884359E+08, -5.489018004509944E+07,
2460882.500000000, A.D. 2025-Jul-26 00:00:00.0000, -2.044460105563608E+08, -4.059960049744194E+08, -5.375988685550395E+07,
2460889.500000000, A.D. 2025-Aug-02 00:00:00.0000, -1.949504618292924E+08, -4.095534647859308E+08, -5.260238102504301E+07,
2460896.500000000, A.D. 2025-Aug-09 00:00:00.0000, -1.853555270424281E+08, -4.129021532722640E+08, -5.141805403836486E+07,
2460903.500000000, A.D. 2025-Aug-16 00:00:00.0000, -1.756654019772371E+08, -4.160388145881543E+08, -5.020731671318018E+07,
2460910.500000000, A.D. 2025-Aug-23 00:00:00.0000, -1.658843928897613E+08, -4.189602537246226E+08, -4.897059959572527E+07,
2460917.500000000, A.D. 2025-Aug-30 00:00:00.0000, -1.560169161564293E+08, -4.216633400987528E+08, -4.770835336530414E+07,
2460924.500000000, A.D. 2025-Sep-06 00:00:00.0000, -1.460674985471083E+08, -4.241450097014658E+08, -4.642104903439692E+07,
2460931.500000000, A.D. 2025-Sep-13 00:00:00.0000, -1.360407797861711E+08, -4.264022682847313E+08, -4.510917799223998E+07,
2460938.500000000, A.D. 2025-Sep-20 00:00:00.0000, -1.259415141178929E+08, -4.284321972319993E+08, -4.377325232493597E+07,
2460945.500000000, A.D. 2025-Sep-27 00:00:00.0000, -1.157745698078510E+08, -4.302319590001583E+08, -4.241380525340971E+07,
2460952.500000000, A.D. 2025-Oct-04 00:00:00.0000, -1.055449285873664E+08, -4.317988015923115E+08, -4.103139145843983E+07,
2460959.500000000, A.D. 2025-Oct-11 00:00:00.0000, -9.525768540445244E+07, -4.331300630014845E+08, -3.962658733368823E+07,
2460966.500000000, A.D. 2025-Oct-18 00:00:00.0000, -8.491804818689065E+07, -4.342231758957702E+08, -3.819999121327022E+07,
2460973.500000000, A.D. 2025-Oct-25 00:00:00.0000, -7.453133746659787E+07, -4.350756725291830E+08, -3.675222358391973E+07,
2460980.500000000, A.D. 2025-Nov-01 00:00:00.0000, -6.410298581403694E+07, -4.356851898576604E+08, -3.528392728237510E+07,
2460987.500000000, A.D. 2025-Nov-08 00:00:00.0000, -5.363853703627969E+07, -4.360494748864505E+08, -3.379576768207178E+07,
2460994.500000000, A.D. 2025-Nov-15 00:00:00.0000, -4.314364497932923E+07, -4.361663903018224E+08, -3.228843288579071E+07,
2461001.500000000, A.D. 2025-Nov-22 00:00:00.0000, -3.262407152071526E+07, -4.360339201604784E+08, -3.076263394138309E+07,
2461008.500000000, A.D. 2025-Nov-29 00:00:00.0000, -2.208568389440868E+07, -4.356501744939998E+08, -2.921910497180352E+07,
2461015.500000000, A.D. 2025-Dec-06 00:00:00.0000, -1.153445361432481E+07, -4.350133929548961E+08, -2.765860301957795E+07,
2461022.500000000, A.D. 2025-Dec-13 00:00:00.0000, -9.764565511319779E+05, -4.341219508637195E+08, -2.608190791877908E+07,
2461029.500000000, A.D. 2025-Dec-20 00:00:00.0000, 9.582129342227468E+06, -4.329743666235013E+08, -2.448982242915702E+07,
2461036.500000000, A.D. 2025-Dec-27 00:00:00.0000, 2.013502759250905E+07, -4.315693078986195E+08, -2.288317231977090E+07,
2461043.500000000, A.D. 2026-Jan-03 00:00:00.0000, 3.067586660584418E+07, -4.299055971588726E+08, -2.126280631590262E+07,
2461050.500000000, A.D. 2026-Jan-10 00:00:00.0000, 4.119818302497543E+07, -4.279822172502105E+08, -1.962959597212681E+07,
2461057.500000000, A.D. 2026-Jan-17 00:00:00.0000, 5.169542528764979E+07, -4.257983170652751E+08, -1.798443549795195E+07,
2461064.500000000, A.D. 2026-Jan-24 00:00:00.0000, 6.216095747545817E+07, -4.233532172730871E+08, -1.632824153927386E+07,
2461071.500000000, A.D. 2026-Jan-31 00:00:00.0000, 7.258806348712681E+07, -4.206464160981362E+08, -1.466195291653571E+07,
2461078.500000000, A.D. 2026-Feb-07 00:00:00.0000, 8.296995160658970E+07, -4.176775951893967E+08, -1.298653032796630E+07,
2461085.500000000, A.D. 2026-Feb-14 00:00:00.0000, 9.329975972553056E+07, -4.144466255769368E+08, -1.130295604014435E+07,
2461092.500000000, A.D. 2026-Feb-21 00:00:00.0000, 1.035705616126453E+08, -4.109535731196069E+08, -9.612233551862538E+06,
2461099.500000000, A.D. 2026-Feb-28 00:00:00.0000, 1.137753731479754E+08, -4.071987022684250E+08, -7.915387035128027E+06,
2461106.500000000, A.D. 2026-Mar-07 00:00:00.0000, 1.239071564659688E+08, -4.031824800709091E+08, -6.213460521697909E+06,
2461113.500000000, A.D. 2026-Mar-14 00:00:00.0000, 1.339588247851922E+08, -3.989055827228802E+08, -4.507517278593451E+06,
2461120.500000000, A.D. 2026-Mar-21 00:00:00.0000, 1.439232497092863E+08, -3.943689017447971E+08, -2.798639297682196E+06,
2461127.500000000, A.D. 2026-Mar-28 00:00:00.0000, 1.537932689893412E+08, -3.895735487293431E+08, -1.087926629428536E+06,
2461134.500000000, A.D. 2026-Apr-04 00:00:00.0000, 1.635616941413401E+08, -3.845208596001839E+08, 6.235034170352519E+05,
2461141.500000000, A.D. 2026-Apr-11 00:00:00.0000, 1.732213181881033E+08, -3.792123987152868E+08, 2.334517154155612E+06,
2461148.500000000, A.D. 2026-Apr-18 00:00:00.0000, 1.827649236785478E+08, -3.736499627944735E+08, 4.043965462296620E+06,
2461155.500000000, A.D. 2026-Apr-25 00:00:00.0000, 1.921852910214484E+08, -3.678355846288646E+08, 5.750684799776256E+06,
2461162.500000000, A.D. 2026-May-02 00:00:00.0000, 2.014752071538023E+08, -3.617715365734254E+08, 7.453498271536663E+06,
2461169.500000000, A.D. 2026-May-09 00:00:00.0000, 2.106274746564775E+08, -3.554603338603402E+08, 9.151216739401281E+06,
2461176.500000000, A.D. 2026-May-16 00:00:00.0000, 2.196349216817410E+08, -3.489047375677081E+08, 1.084263995015982E+07,
2461183.500000000, A.D. 2026-May-23 00:00:00.0000, 2.284904127284906E+08, -3.421077561958158E+08, 1.252655775972357E+07,
2461190.500000000, A.D. 2026-May-30 00:00:00.0000, 2.371868581669108E+08, -3.350726455064356E+08, 1.420175166906931E+07,
2461197.500000000, A.D. 2026-Jun-06 00:00:00.0000, 2.457172221720102E+08, -3.278029098721404E+08, 1.586699643169260E+07,
2461204.500000000, A.D. 2026-Jun-13 00:00:00.0000, 2.540745327076947E+08, -3.203023049101492E+08, 1.752106141014105E+07,
2461211.500000000, A.D. 2026-Jun-20 00:00:00.0000, 2.622518930351204E+08, -3.125748384511507E+08, 1.916271196408989E+07,
2461218.500000000, A.D. 2026-Jun-27 00:00:00.0000, 2.702424930191093E+08, -3.046247701619132E+08, 2.079071099503411E+07,
2461225.500000000, A.D. 2026-Jul-04 00:00:00.0000, 2.780396202020046E+08, -2.964566105768484E+08, 2.240382058089547E+07,
2461232.500000000, A.D. 2026-Jul-11 00:00:00.0000, 2.856366708662634E+08, -2.880751196524541E+08, 2.400080366268441E+07,
2461239.500000000, A.D. 2026-Jul-18 00:00:00.0000, 2.930271611438273E+08, -2.794853048032181E+08, 2.558042577266912E+07,
2461246.500000000, A.D. 2026-Jul-25 00:00:00.0000, 3.002047381597057E+08, -2.706924184030097E+08, 2.714145679747425E+07,
2461253.500000000, A.D. 2026-Aug-01 00:00:00.0000, 3.071631912183667E+08, -2.617019547888152E+08, 2.868267276262361E+07,
2461260.500000000, A.D. 2026-Aug-08 00:00:00.0000, 3.138964632067536E+08, -2.525196467929469E+08, 3.020285761018687E+07,
2461267.500000000, A.D. 2026-Aug-15 00:00:00.0000, 3.203986625882329E+08, -2.431514613463102E+08, 3.170080496252992E+07,
2461274.500000000, A.D. 2026-Aug-22 00:00:00.0000, 3.266640751860346E+08, -2.336035929294668E+08, 3.317532003633987E+07,
2461281.500000000, A.D. 2026-Aug-29 00:00:00.0000, 3.326871734243363E+08, -2.238824562465676E+08, 3.462522179882331E+07,
$$EOE